[{"norad_id":"51127","company":"STARLINK","tle_line2":"2 51127  53.2162 184.1852 0001148  95.6002 264.5121 15.08841424184171","launch_date":"2022-01-19","type":"LEO","tle_line1":"1 51127U 22005Z   25138.52228574 -.00002197  00000+0 -12002-3 0  9997","satellite_name":"STARLINK-3370"},{"norad_id":"51128","company":"STARLINK","tle_line2":"2 51128  53.2168 184.5614 0001251  93.4670 266.6466 15.08834424184155","launch_date":"2022-01-19","type":"LEO","tle_line1":"1 51128U 22005AA  25138.43669540  .00000618  00000+0  56917-4 0  9998","satellite_name":"STARLINK-3400"},{"norad_id":"51129","company":"STARLINK","tle_line2":"2 51129  53.2158 184.7387 0000953 106.4221 253.6876 15.08848346184158","launch_date":"2022-01-19","type":"LEO","tle_line1":"1 51129U 22005AB  25138.39716731 -.00000232  00000+0  34787-5 0  9994","satellite_name":"STARLINK-3396"},{"norad_id":"51130","company":"STARLINK","tle_line2":"2 51130  53.2161 184.2150 0001193  54.5529 305.5574 15.08841356184165","launch_date":"2022-01-19","type":"LEO","tle_line1":"1 51130U 22005AC  25138.51396853  .00000826  00000+0  69956-4 0  9992","satellite_name":"STARLINK-3395"},{"norad_id":"51131","company":"STARLINK","tle_line2":"2 51131  53.2168 184.5468 0001274  89.4450 270.6688 15.08839052184155","launch_date":"2022-01-19","type":"LEO","tle_line1":"1 51131U 22005AD  25138.44037079  .00000869  00000+0  72707-4 0  9992","satellite_name":"STARLINK-3388"},{"norad_id":"51132","company":"STARLINK","tle_line2":"2 51132  53.2157 184.2317 0000906  53.7582 306.3493 15.08841120184166","launch_date":"2022-01-19","type":"LEO","tle_line1":"1 51132U 22005AE  25138.51029031  .00001525  00000+0  11389-3 0  9998","satellite_name":"STARLINK-3393"},{"norad_id":"51133","company":"STARLINK","tle_line2":"2 51133  53.2175 184.5791 0001434 102.5309 257.5844 15.08830096184159","launch_date":"2022-01-19","type":"LEO","tle_line1":"1 51133U 22005AF  25138.43301609 -.00000673  00000+0 -24199-4 0  9993","satellite_name":"STARLINK-3356"},{"norad_id":"51134","company":"STARLINK","tle_line2":"2 51134  53.2164 174.7197 0001295  97.0356 263.0783 15.08831114184307","launch_date":"2022-01-19","type":"LEO","tle_line1":"1 51134U 22005AG  25138.40177142  .00000186  00000+0  29787-4 0  9999","satellite_name":"STARLINK-3183"},{"norad_id":"51135","company":"STARLINK","tle_line2":"2 51135  53.2164 184.5352 0001092  95.5347 264.5769 15.08835725184153","launch_date":"2022-01-19","type":"LEO","tle_line1":"1 51135U 22005AH  25138.41923489  .00000392  00000+0  42721-4 0  9996","satellite_name":"STARLINK-3363"},{"norad_id":"51136","company":"STARLINK","tle_line2":"2 51136  53.2166 183.8779 0001243  84.5821 275.5312 15.08834014184172","launch_date":"2022-01-19","type":"LEO","tle_line1":"1 51136U 22005AJ  25138.54338788 -.00001029  00000+0 -46570-4 0  9999","satellite_name":"STARLINK-3253"},{"norad_id":"51137","company":"STARLINK","tle_line2":"2 51137  53.2159 184.6444 0001293  87.9936 272.1204 15.08829888184167","launch_date":"2022-01-19","type":"LEO","tle_line1":"1 51137U 22005AK  25138.41829204  .00001362  00000+0  10365-3 0  9994","satellite_name":"STARLINK-3180"},{"norad_id":"51138","company":"STARLINK","tle_line2":"2 51138  53.2158 184.6109 0001251  89.3954 270.7182 15.08841231184159","launch_date":"2022-01-19","type":"LEO","tle_line1":"1 51138U 22005AL  25138.42564393  .00000924  00000+0  76120-4 0  9996","satellite_name":"STARLINK-3177"},{"norad_id":"51139","company":"STARLINK","tle_line2":"2 51139  53.2162 184.6817 0001335  84.0731 276.0413 15.08835659184163","launch_date":"2022-01-19","type":"LEO","tle_line1":"1 51139U 22005AM  25138.41188749 -.00000606  00000+0 -19999-4 0  9993","satellite_name":"STARLINK-3172"},{"norad_id":"51140","company":"STARLINK","tle_line2":"2 51140  53.2158 184.6332 0000926  79.1456 280.9640 15.08840546184163","launch_date":"2022-01-19","type":"LEO","tle_line1":"1 51140U 22005AN  25138.42292127  .00001141  00000+0  89781-4 0  9991","satellite_name":"STARLINK-3175"},{"norad_id":"51141","company":"STARLINK","tle_line2":"2 51141  53.2160 184.1153 0001154  90.7821 269.3303 15.08838910184183","launch_date":"2022-01-19","type":"LEO","tle_line1":"1 51141U 22005AP  25138.53604720 -.00000651  00000+0 -22839-4 0  9998","satellite_name":"STARLINK-3179"},{"norad_id":"51142","company":"STARLINK","tle_line2":"2 51142  53.2162 174.7703 0001238  86.5195 273.5939 15.08836788184297","launch_date":"2022-01-19","type":"LEO","tle_line1":"1 51142U 22005AQ  25138.40449543 -.00000327  00000+0 -24869-5 0  9991","satellite_name":"STARLINK-3369"},{"norad_id":"51143","company":"STARLINK","tle_line2":"2 51143  53.2171 194.4840 0001308 101.1342 258.9798 15.08834378184029","launch_date":"2022-01-19","type":"LEO","tle_line1":"1 51143U 22005AR  25138.45417429  .00000499  00000+0  49469-4 0  9995","satellite_name":"STARLINK-3184"},{"norad_id":"51144","company":"STARLINK","tle_line2":"2 51144  53.2166 184.6981 0001324  90.6314 269.4829 15.08838150184169","launch_date":"2022-01-19","type":"LEO","tle_line1":"1 51144U 22005AS  25138.40820216 -.00000353  00000+0 -41086-5 0  9992","satellite_name":"STARLINK-3185"},{"norad_id":"51146","company":"STARLINK","tle_line2":"2 51146  53.2162 184.6659 0001122  85.9300 274.1821 15.08837829184153","launch_date":"2022-01-19","type":"LEO","tle_line1":"1 51146U 22005AU  25138.41556308  .00000353  00000+0  40261-4 0  9994","satellite_name":"STARLINK-3354"},{"norad_id":"51147","company":"STARLINK","tle_line2":"2 51147  53.2170 194.1332 0001390 102.8737 257.2411 15.08827847184030","launch_date":"2022-01-19","type":"LEO","tle_line1":"1 51147U 22005AV  25138.51768182  .00001193  00000+0  93079-4 0  9999","satellite_name":"STARLINK-3352"},{"norad_id":"51148","company":"STARLINK","tle_line2":"2 51148  53.2164 194.3346 0001296  83.6219 276.4921 15.08830339184036","launch_date":"2022-01-19","type":"LEO","tle_line1":"1 51148U 22005AW  25138.53243764 -.00000580  00000+0 -18355-4 0  9991","satellite_name":"STARLINK-3359"},{"norad_id":"51149","company":"STARLINK","tle_line2":"2 51149  53.2161 194.4270 0001344  89.6517 270.4629 15.08840713184027","launch_date":"2022-01-19","type":"LEO","tle_line1":"1 51149U 22005AX  25138.42565900  .00000341  00000+0  39497-4 0  9992","satellite_name":"STARLINK-3360"},{"norad_id":"51150","company":"STARLINK","tle_line2":"2 51150  53.2163 184.5039 0001240  86.7943 273.3191 15.08833924184167","launch_date":"2022-01-19","type":"LEO","tle_line1":"1 51150U 22005AY  25138.36304661  .00000168  00000+0  28627-4 0  9992","satellite_name":"STARLINK-3357"},{"norad_id":"51151","company":"STARLINK","tle_line2":"2 51151  53.2057 156.8827 0006858 340.6612  19.4137 15.49198237184561","launch_date":"2022-01-19","type":"LEO","tle_line1":"1 51151U 22005AZ  25138.46905878  .00095632  00000+0  17120-2 0  9995","satellite_name":"STARLINK-3361"},{"norad_id":"51152","company":"STARLINK","tle_line2":"2 51152  53.2161 193.7329 0001349  88.5387 271.5760 15.08839405184042","launch_date":"2022-01-19","type":"LEO","tle_line1":"1 51152U 22005BA  25138.53508108  .00001166  00000+0  91364-4 0  9992","satellite_name":"STARLINK-3364"},{"norad_id":"51461","company":"STARLINK","tle_line2":"2 51461  53.2160 164.4040 0001291  84.8365 275.2774 15.08844378182252","launch_date":"2022-02-03","type":"LEO","tle_line1":"1 51461U 22010F   25138.47164471  .00001465  00000+0  11008-3 0  9993","satellite_name":"STARLINK-3181"},{"norad_id":"51462","company":"STARLINK","tle_line2":"2 51462  53.2161 164.4271 0001251  90.6350 269.4786 15.08835808182251","launch_date":"2022-02-03","type":"LEO","tle_line1":"1 51462U 22010G   25138.46892669 -.00000328  00000+0 -25381-5 0  9990","satellite_name":"STARLINK-3166"},{"norad_id":"51463","company":"STARLINK","tle_line2":"2 51463  53.2163 164.8324 0001228  89.7183 270.3950 15.08835363181938","launch_date":"2022-02-03","type":"LEO","tle_line1":"1 51463U 22010H   25138.37596990  .00000160  00000+0  28170-4 0  9999","satellite_name":"STARLINK-3419"},{"norad_id":"51464","company":"STARLINK","tle_line2":"2 51464  53.2161 164.4521 0000984  81.1516 278.9587 15.08840244182751","launch_date":"2022-02-03","type":"LEO","tle_line1":"1 51464U 22010J   25138.46060690  .00000542  00000+0  52142-4 0  9993","satellite_name":"STARLINK-3189"},{"norad_id":"51465","company":"STARLINK","tle_line2":"2 51465  53.2158 164.4696 0001274  91.2232 268.8906 15.08828212182755","launch_date":"2022-02-03","type":"LEO","tle_line1":"1 51465U 22010K   25138.45692270 -.00000223  00000+0  40527-5 0  9990","satellite_name":"STARLINK-3401"},{"norad_id":"51467","company":"STARLINK","tle_line2":"2 51467  53.2164 165.1482 0001303  96.0633 264.0508 15.08840695181929","launch_date":"2022-02-03","type":"LEO","tle_line1":"1 51467U 22010M   25138.30604311  .00000909  00000+0  75174-4 0  9990","satellite_name":"STARLINK-3178"},{"norad_id":"51468","company":"STARLINK","tle_line2":"2 51468  53.2157 164.4799 0001312  84.9235 275.1907 15.08841382181941","launch_date":"2022-02-03","type":"LEO","tle_line1":"1 51468U 22010N   25138.44587960 -.00000153  00000+0  84836-5 0  9994","satellite_name":"STARLINK-3174"},{"norad_id":"51469","company":"STARLINK","tle_line2":"2 51469  53.2161 164.4380 0001210 124.6050 235.5056 15.08845828182256","launch_date":"2022-02-03","type":"LEO","tle_line1":"1 51469U 22010P   25138.46430247  .00002667  00000+0  18554-3 0  9995","satellite_name":"STARLINK-3182"},{"norad_id":"51472","company":"STARLINK","tle_line2":"2 51472  53.2161 164.4808 0001182  83.4437 276.6690 15.08839921182251","launch_date":"2022-02-03","type":"LEO","tle_line1":"1 51472U 22010S   25138.43947256  .00000238  00000+0  33046-4 0  9995","satellite_name":"STARLINK-3415"},{"norad_id":"51714","company":"STARLINK","tle_line2":"2 51714  53.2165 214.2010 0000851  73.3784 286.7302 15.08850114178869","launch_date":"2022-02-21","type":"LEO","tle_line1":"1 51714U 22016A   25138.51217541  .00000795  00000+0  67999-4 0  9998","satellite_name":"STARLINK-3528"}]